{
  "type": "FeatureCollection",
  "features": [
    {
      "type": "Feature",
      "properties": {
        "norad_id": 66617,
        "name": "STARLINK-35940",
        "group": "last-30-days",
        "lat": 29.667602634947134,
        "lon": -58.24962739265206,
        "alt_km": 443.22493280459366,
        "timestamp": "2025-12-21T05:44:50.289616+00:00",
        "meta_object_name": "STARLINK-35940",
        "meta_object_id": "2025-271A",
        "meta_epoch": "2025-12-20T19:47:13.217856",
        "meta_mean_motion": 15.39629505,
        "meta_eccentricity": 9.653e-05,
        "meta_inclination": 53.16,
        "meta_ra_of_asc_node": 148.9882,
        "meta_arg_of_pericenter": 80.5261,
        "meta_mean_anomaly": 279.5852,
        "meta_ephemeris_type": 0,
        "meta_classification_type": "U",
        "meta_norad_cat_id": 66617,
        "meta_element_set_no": 999,
        "meta_rev_at_epoch": 545,
        "meta_bstar": 0.00064055977,
        "meta_mean_motion_dot": 0.00025315,
        "meta_mean_motion_ddot": 0,
        "tle_line1": "1 66617U 25271A   25354.82445854  .00025315  00000+0  64056-3 0  9991",
        "tle_line2": "2 66617  53.1600 148.9882 0000965  80.5261 279.5852 15.39629505  5452"
      },
      "geometry": {
        "type": "Point",
        "coordinates": [
          -58.24962739265206,
          29.667602634947134
        ]
      }
    },
    {
      "type": "Feature",
      "properties": {
        "norad_id": 66618,
        "name": "STARLINK-35970",
        "group": "last-30-days",
        "lat": 28.396231213948475,
        "lon": 170.42944192489352,
        "alt_km": 425.5807444537122,
        "timestamp": "2025-12-21T05:44:50.289627+00:00",
        "meta_object_name": "STARLINK-35970",
        "meta_object_id": "2025-271B",
        "meta_epoch": "2025-12-19T22:33:37.423008",
        "meta_mean_motion": 15.46560751,
        "meta_eccentricity": 0.0001439,
        "meta_inclination": 53.1597,
        "meta_ra_of_asc_node": 152.703,
        "meta_arg_of_pericenter": 41.703,
        "meta_mean_anomaly": 318.4087,
        "meta_ephemeris_type": 0,
        "meta_classification_type": "U",
        "meta_norad_cat_id": 66618,
        "meta_element_set_no": 999,
        "meta_rev_at_epoch": 532,
        "meta_bstar": -0.0083391,
        "meta_mean_motion_dot": -0.0040083,
        "meta_mean_motion_ddot": 0,
        "tle_line1": "1 66618U 25271B   25353.94001647 -.00400830  00000+0 -83391-2 0  9995",
        "tle_line2": "2 66618  53.1597 152.7030 0001439  41.7030 318.4087 15.46560751  5320"
      },
      "geometry": {
        "type": "Point",
        "coordinates": [
          170.42944192489352,
          28.396231213948475
        ]
      }
    },
    {
      "type": "Feature",
      "properties": {
        "norad_id": 66619,
        "name": "STARLINK-35951",
        "group": "last-30-days",
        "lat": -7.362974798936664,
        "lon": 141.05580671148758,
        "alt_km": 430.1656317317638,
        "timestamp": "2025-12-21T05:44:50.289637+00:00",
        "meta_object_name": "STARLINK-35951",
        "meta_object_id": "2025-271C",
        "meta_epoch": "2025-12-19T22:45:25.750080",
        "meta_mean_motion": 15.46545275,
        "meta_eccentricity": 0.0002872,
        "meta_inclination": 53.1623,
        "meta_ra_of_asc_node": 152.7597,
        "meta_arg_of_pericenter": 23.3692,
        "meta_mean_anomaly": 336.7446,
        "meta_ephemeris_type": 0,
        "meta_classification_type": "U",
        "meta_norad_cat_id": 66619,
        "meta_element_set_no": 999,
        "meta_rev_at_epoch": 532,
        "meta_bstar": -0.0081194,
        "meta_mean_motion_dot": -0.0039068,
        "meta_mean_motion_ddot": 0,
        "tle_line1": "1 66619U 25271C   25353.94821470 -.00390680  00000+0 -81194-2 0  9990",
        "tle_line2": "2 66619  53.1623 152.7597 0002872  23.3692 336.7446 15.46545275  5327"
      },
      "geometry": {
        "type": "Point",
        "coordinates": [
          141.05580671148758,
          -7.362974798936664
        ]
      }
    },
    {
      "type": "Feature",
      "properties": {
        "norad_id": 66620,
        "name": "STARLINK-35936",
        "group": "last-30-days",
        "lat": -19.972971491619678,
        "lon": 130.83539687881608,
        "alt_km": 436.971412971101,
        "timestamp": "2025-12-21T05:44:50.289647+00:00",
        "meta_object_name": "STARLINK-35936",
        "meta_object_id": "2025-271D",
        "meta_epoch": "2025-12-19T22:47:58.481952",
        "meta_mean_motion": 15.45204148,
        "meta_eccentricity": 0.0001217,
        "meta_inclination": 53.1593,
        "meta_ra_of_asc_node": 152.7719,
        "meta_arg_of_pericenter": 60.4895,
        "meta_mean_anomaly": 299.6234,
        "meta_ephemeris_type": 0,
        "meta_classification_type": "U",
        "meta_norad_cat_id": 66620,
        "meta_element_set_no": 999,
        "meta_rev_at_epoch": 532,
        "meta_bstar": -0.0084825,
        "meta_mean_motion_dot": -0.00389636,
        "meta_mean_motion_ddot": 0,
        "tle_line1": "1 66620U 25271D   25353.94998243 -.00389636  00000+0 -84825-2 0  9998",
        "tle_line2": "2 66620  53.1593 152.7719 0001217  60.4895 299.6234 15.45204148  5322"
      },
      "geometry": {
        "type": "Point",
        "coordinates": [
          130.83539687881608,
          -19.972971491619678
        ]
      }
    },
    {
      "type": "Feature",
      "properties": {
        "norad_id": 66621,
        "name": "STARLINK-35847",
        "group": "last-30-days",
        "lat": 32.2659782661972,
        "lon": 174.75821606557227,
        "alt_km": 424.6259420213619,
        "timestamp": "2025-12-21T05:44:50.289657+00:00",
        "meta_object_name": "STARLINK-35847",
        "meta_object_id": "2025-271E",
        "meta_epoch": "2025-12-19T22:32:40.837056",
        "meta_mean_motion": 15.4673989,
        "meta_eccentricity": 5.74e-05,
        "meta_inclination": 53.1594,
        "meta_ra_of_asc_node": 152.6978,
        "meta_arg_of_pericenter": 182.8412,
        "meta_mean_anomaly": 177.2593,
        "meta_ephemeris_type": 0,
        "meta_classification_type": "U",
        "meta_norad_cat_id": 66621,
        "meta_element_set_no": 999,
        "meta_rev_at_epoch": 532,
        "meta_bstar": -0.0053109,
        "meta_mean_motion_dot": -0.00261578,
        "meta_mean_motion_ddot": 0,
        "tle_line1": "1 66621U 25271E   25353.93936154 -.00261578  00000+0 -53109-2 0  9996",
        "tle_line2": "2 66621  53.1594 152.6978 0000574 182.8412 177.2593 15.46739890  5326"
      },
      "geometry": {
        "type": "Point",
        "coordinates": [
          174.75821606557227,
          32.2659782661972
        ]
      }
    },
    {
      "type": "Feature",
      "properties": {
        "norad_id": 66622,
        "name": "STARLINK-35950",
        "group": "last-30-days",
        "lat": -46.39322122833048,
        "lon": 18.74529959401571,
        "alt_km": 452.5957881342383,
        "timestamp": "2025-12-21T05:44:50.289667+00:00",
        "meta_object_name": "STARLINK-35950",
        "meta_object_id": "2025-271F",
        "meta_epoch": "2025-12-20T22:00:01.999584",
        "meta_mean_motion": 15.39595376,
        "meta_eccentricity": 0.00011477,
        "meta_inclination": 53.1591,
        "meta_ra_of_asc_node": 148.3496,
        "meta_arg_of_pericenter": 73.9416,
        "meta_mean_anomaly": 180.7741,
        "meta_ephemeris_type": 0,
        "meta_classification_type": "U",
        "meta_norad_cat_id": 66622,
        "meta_element_set_no": 999,
        "meta_rev_at_epoch": 555,
        "meta_bstar": 0.0014344262,
        "meta_mean_motion_dot": 0.00057362,
        "meta_mean_motion_ddot": 0,
        "tle_line1": "1 66622U 25271F   25354.91668981  .00057362  00000+0  14344-2 0  9996",
        "tle_line2": "2 66622  53.1591 148.3496 0001147  73.9416 180.7741 15.39595376  5552"
      },
      "geometry": {
        "type": "Point",
        "coordinates": [
          18.74529959401571,
          -46.39322122833048
        ]
      }
    },
    {
      "type": "Feature",
      "properties": {
        "norad_id": 66623,
        "name": "STARLINK-35920",
        "group": "last-30-days",
        "lat": -10.719529266980157,
        "lon": -24.913559786836952,
        "alt_km": 450.77345455704835,
        "timestamp": "2025-12-21T05:44:50.289681+00:00",
        "meta_object_name": "STARLINK-35920",
        "meta_object_id": "2025-271G",
        "meta_epoch": "2025-12-20T18:00:21.356352",
        "meta_mean_motion": 15.39640235,
        "meta_eccentricity": 0.00035238,
        "meta_inclination": 53.1606,
        "meta_ra_of_asc_node": 149.2333,
        "meta_arg_of_pericenter": 63.4222,
        "meta_mean_anomaly": 296.7144,
        "meta_ephemeris_type": 0,
        "meta_classification_type": "U",
        "meta_norad_cat_id": 66623,
        "meta_element_set_no": 999,
        "meta_rev_at_epoch": 544,
        "meta_bstar": 0.00064131801,
        "meta_mean_motion_dot": 0.00025358,
        "meta_mean_motion_ddot": 0,
        "tle_line1": "1 66623U 25271G   25354.75024718  .00025358  00000+0  64132-3 0  9994",
        "tle_line2": "2 66623  53.1606 149.2333 0003523  63.4222 296.7144 15.39640235  5447"
      },
      "geometry": {
        "type": "Point",
        "coordinates": [
          -24.913559786836952,
          -10.719529266980157
        ]
      }
    }
  ]
}